[{"OBJECT_NAME":"FENGYUN 3B","OBJECT_ID":"2010-059A","EPOCH":"2026-03-10T00:20:44.307744","MEAN_MOTION":14.14816293,"ECCENTRICITY":0.00231137,"INCLINATION":98.9763,"RA_OF_ASC_NODE":114.55,"ARG_OF_PERICENTER":107.0698,"MEAN_ANOMALY":316.1301,"EPHEMERIS_TYPE":0,"CLASSIFICATION_TYPE":"U","NORAD_CAT_ID":37214,"ELEMENT_SET_NO":999,"REV_AT_EPOCH":79340,"BSTAR":-0.00015312798,"MEAN_MOTION_DOT":-3.41e-6,"MEAN_MOTION_DDOT":0},{"OBJECT_NAME":"THOR ABLESTAR DEB","OBJECT_ID":"1961-015S","EPOCH":"2026-03-09T16:46:07.844160","MEAN_MOTION":13.94756812,"ECCENTRICITY":0.00815431,"INCLINATION":66.6589,"RA_OF_ASC_NODE":217.8067,"ARG_OF_PERICENTER":258.233,"MEAN_ANOMALY":100.9594,"EPHEMERIS_TYPE":0,"CLASSIFICATION_TYPE":"U","NORAD_CAT_ID":132,"ELEMENT_SET_NO":999,"REV_AT_EPOCH":28979,"BSTAR":9.9659634e-5,"MEAN_MOTION_DOT":5.9e-7,"MEAN_MOTION_DDOT":0}]
